RESOURCESAT-2A          
1 41877U 16074A   26061.86359397 -.00000024  00000+0  90355-5 0  9993
2 41877  98.7624 136.2042 0002807  50.1267 310.0157 14.21596806479190
CARTOSAT-2D             
1 41948U 17008A   26061.85521131  .00003378  00000+0  16328-3 0  9996
2 41948  97.4248 123.0731 0004400 245.6276 114.4499 15.19296429501432
SENTINEL-2B             
1 42063U 17013A   26061.84385679 -.00000001  00000+0  16195-4 0  9999
2 42063  98.5676 138.1371 0001096  94.3621 265.7687 14.30816194469437
CARTOSAT-2E             
1 42767U 17036C   26061.80629318  .00005371  00000+0  25811-3 0  9990
2 42767  97.4418 123.2887 0003032 328.8968  31.2087 15.19241256481992
FORMOSAT-5              
1 42920U 17049A   26061.77590895  .00000251  00000+0  74677-4 0  9995
2 42920  98.2324 139.4330 0012021  56.1799 304.0539 14.50816855451246
SENTINEL-5P             
1 42969U 17064A   26061.76759585  .00000080  00000+0  59124-4 0  9997
2 42969  98.7875   4.6807 0001107  80.8299 279.3002 14.19547081434460
SKYSAT-C11              
1 42987U 17068A   26061.62504208  .00032172  00000+0  53745-3 0  9995
2 42987  97.4184 206.3788 0000772  88.2492 271.8849 15.51873572466681
SKYSAT-C10              
1 42988U 17068B   26061.61502054  .00012945  00000+0  41514-3 0  9999
2 42988  97.4321 197.6950 0001182  90.8311 269.3066 15.32470276466027
SKYSAT-C9               
1 42989U 17068C   26061.62479956  .00018049  00000+0  47434-3 0  9993
2 42989  97.4246 197.6820 0009646 156.0688 204.1007 15.38608931466350
SKYSAT-C8               
1 42990U 17068D   26061.60900712  .00014544  00000+0  43646-3 0  9999
2 42990  97.4344 197.1032 0001268 106.9595 253.1787 15.34558761465959
SKYSAT-C7               
1 42991U 17068E   26061.59885859  .00014951  00000+0  44921-3 0  9991
2 42991  97.4351 198.0754 0007385 125.6485 234.5447 15.34489067466017
SKYSAT-C6               
1 42992U 17068F   26061.65074517  .00013849  00000+0  44292-3 0  9996
2 42992  97.4386 198.4322 0003531 129.4456 230.7098 15.32537296465992
CARTOSAT-2F             
1 43111U 18004A   26061.83820406  .00005069  00000+0  24421-3 0  9994
2 43111  97.4179 123.1217 0000622 274.2460  85.8704 15.19179736451181
GAOFEN-1 02             
1 43259U 18031A   26061.83051828  .00000741  00000+0  11393-3 0  9997
2 43259  98.0667 124.5922 0002925   8.9298 351.1963 14.76465360427003
GAOFEN-1 03             
1 43260U 18031B   26061.87642389  .00001058  00000+0  15949-3 0  9994
2 43260  98.0649 124.5071 0004000  67.8642 292.2992 14.76461796427009
GAOFEN-1 04             
1 43262U 18031D   26061.85212243  .00000727  00000+0  11194-3 0  9996
2 43262  98.0669 124.6613 0002077  89.9128 270.2320 14.76461776426998
SENTINEL-3B             
1 43437U 18039A   26061.80261942  .00000155  00000+0  82049-4 0  9996
2 43437  98.6244 130.8365 0000824 126.9282 233.1974 14.26741817408952
