[{"OBJECT_NAME":"RESOURCESAT-2A","OBJECT_ID":"2016-074A","EPOCH":"2026-03-02T20:43:34.519008","MEAN_MOTION":14.21596806,"ECCENTRICITY":0.0002807,"INCLINATION":98.7624,"RA_OF_ASC_NODE":136.2042,"ARG_OF_PERICENTER":50.1267,"MEAN_ANOMALY":310.0157,"EPHEMERIS_TYPE":0,"CLASSIFICATION_TYPE":"U","NORAD_CAT_ID":41877,"ELEMENT_SET_NO":999,"REV_AT_EPOCH":47919,"BSTAR":9.0355e-6,"MEAN_MOTION_DOT":-2.4e-7,"MEAN_MOTION_DDOT":0},{"OBJECT_NAME":"CARTOSAT-2D","OBJECT_ID":"2017-008A","EPOCH":"2026-03-02T20:31:30.257184","MEAN_MOTION":15.19296429,"ECCENTRICITY":0.00044,"INCLINATION":97.4248,"RA_OF_ASC_NODE":123.0731,"ARG_OF_PERICENTER":245.6276,"MEAN_ANOMALY":114.4499,"EPHEMERIS_TYPE":0,"CLASSIFICATION_TYPE":"U","NORAD_CAT_ID":41948,"ELEMENT_SET_NO":999,"REV_AT_EPOCH":50143,"BSTAR":0.00016328,"MEAN_MOTION_DOT":3.378e-5,"MEAN_MOTION_DDOT":0},{"OBJECT_NAME":"SENTINEL-2B","OBJECT_ID":"2017-013A","EPOCH":"2026-03-02T20:15:09.226656","MEAN_MOTION":14.30816194,"ECCENTRICITY":0.0001096,"INCLINATION":98.5676,"RA_OF_ASC_NODE":138.1371,"ARG_OF_PERICENTER":94.3621,"MEAN_ANOMALY":265.7687,"EPHEMERIS_TYPE":0,"CLASSIFICATION_TYPE":"U","NORAD_CAT_ID":42063,"ELEMENT_SET_NO":999,"REV_AT_EPOCH":46943,"BSTAR":1.6195e-5,"MEAN_MOTION_DOT":-1.0e-8,"MEAN_MOTION_DDOT":0},{"OBJECT_NAME":"CARTOSAT-2E","OBJECT_ID":"2017-036C","EPOCH":"2026-03-02T19:21:03.730752","MEAN_MOTION":15.19241256,"ECCENTRICITY":0.0003032,"INCLINATION":97.4418,"RA_OF_ASC_NODE":123.2887,"ARG_OF_PERICENTER":328.8968,"MEAN_ANOMALY":31.2087,"EPHEMERIS_TYPE":0,"CLASSIFICATION_TYPE":"U","NORAD_CAT_ID":42767,"ELEMENT_SET_NO":999,"REV_AT_EPOCH":48199,"BSTAR":0.00025811,"MEAN_MOTION_DOT":5.371e-5,"MEAN_MOTION_DDOT":0},{"OBJECT_NAME":"FORMOSAT-5","OBJECT_ID":"2017-049A","EPOCH":"2026-03-02T18:37:18.533280","MEAN_MOTION":14.50816855,"ECCENTRICITY":0.0012021,"INCLINATION":98.2324,"RA_OF_ASC_NODE":139.433,"ARG_OF_PERICENTER":56.1799,"MEAN_ANOMALY":304.0539,"EPHEMERIS_TYPE":0,"CLASSIFICATION_TYPE":"U","NORAD_CAT_ID":42920,"ELEMENT_SET_NO":999,"REV_AT_EPOCH":45124,"BSTAR":7.4677e-5,"MEAN_MOTION_DOT":2.51e-6,"MEAN_MOTION_DDOT":0},{"OBJECT_NAME":"SENTINEL-5P","OBJECT_ID":"2017-064A","EPOCH":"2026-03-02T18:25:20.281440","MEAN_MOTION":14.19547081,"ECCENTRICITY":0.0001107,"INCLINATION":98.7875,"RA_OF_ASC_NODE":4.6807,"ARG_OF_PERICENTER":80.8299,"MEAN_ANOMALY":279.3002,"EPHEMERIS_TYPE":0,"CLASSIFICATION_TYPE":"U","NORAD_CAT_ID":42969,"ELEMENT_SET_NO":999,"REV_AT_EPOCH":43446,"BSTAR":5.9124e-5,"MEAN_MOTION_DOT":8.0e-7,"MEAN_MOTION_DDOT":0},{"OBJECT_NAME":"SKYSAT-C11","OBJECT_ID":"2017-068A","EPOCH":"2026-03-02T15:00:03.635712","MEAN_MOTION":15.51873572,"ECCENTRICITY":7.72e-5,"INCLINATION":97.4184,"RA_OF_ASC_NODE":206.3788,"ARG_OF_PERICENTER":88.2492,"MEAN_ANOMALY":271.8849,"EPHEMERIS_TYPE":0,"CLASSIFICATION_TYPE":"U","NORAD_CAT_ID":42987,"ELEMENT_SET_NO":999,"REV_AT_EPOCH":46668,"BSTAR":0.00053745,"MEAN_MOTION_DOT":0.00032172,"MEAN_MOTION_DDOT":0},{"OBJECT_NAME":"SKYSAT-C10","OBJECT_ID":"2017-068B","EPOCH":"2026-03-02T14:45:37.774656","MEAN_MOTION":15.32470276,"ECCENTRICITY":0.0001182,"INCLINATION":97.4321,"RA_OF_ASC_NODE":197.695,"ARG_OF_PERICENTER":90.8311,"MEAN_ANOMALY":269.3066,"EPHEMERIS_TYPE":0,"CLASSIFICATION_TYPE":"U","NORAD_CAT_ID":42988,"ELEMENT_SET_NO":999,"REV_AT_EPOCH":46602,"BSTAR":0.00041514,"MEAN_MOTION_DOT":0.00012945,"MEAN_MOTION_DDOT":0},{"OBJECT_NAME":"SKYSAT-C9","OBJECT_ID":"2017-068C","EPOCH":"2026-03-02T14:59:42.681984","MEAN_MOTION":15.38608931,"ECCENTRICITY":0.0009646,"INCLINATION":97.4246,"RA_OF_ASC_NODE":197.682,"ARG_OF_PERICENTER":156.0688,"MEAN_ANOMALY":204.1007,"EPHEMERIS_TYPE":0,"CLASSIFICATION_TYPE":"U","NORAD_CAT_ID":42989,"ELEMENT_SET_NO":999,"REV_AT_EPOCH":46635,"BSTAR":0.00047434,"MEAN_MOTION_DOT":0.00018049,"MEAN_MOTION_DDOT":0},{"OBJECT_NAME":"SKYSAT-C8","OBJECT_ID":"2017-068D","EPOCH":"2026-03-02T14:36:58.215168","MEAN_MOTION":15.34558761,"ECCENTRICITY":0.0001268,"INCLINATION":97.4344,"RA_OF_ASC_NODE":197.1032,"ARG_OF_PERICENTER":106.9595,"MEAN_ANOMALY":253.1787,"EPHEMERIS_TYPE":0,"CLASSIFICATION_TYPE":"U","NORAD_CAT_ID":42990,"ELEMENT_SET_NO":999,"REV_AT_EPOCH":46595,"BSTAR":0.00043646,"MEAN_MOTION_DOT":0.00014544,"MEAN_MOTION_DDOT":0},{"OBJECT_NAME":"SKYSAT-C7","OBJECT_ID":"2017-068E","EPOCH":"2026-03-02T14:22:21.382176","MEAN_MOTION":15.34489067,"ECCENTRICITY":0.0007385,"INCLINATION":97.4351,"RA_OF_ASC_NODE":198.0754,"ARG_OF_PERICENTER":125.6485,"MEAN_ANOMALY":234.5447,"EPHEMERIS_TYPE":0,"CLASSIFICATION_TYPE":"U","NORAD_CAT_ID":42991,"ELEMENT_SET_NO":999,"REV_AT_EPOCH":46601,"BSTAR":0.00044921,"MEAN_MOTION_DOT":0.00014951,"MEAN_MOTION_DDOT":0},{"OBJECT_NAME":"SKYSAT-C6","OBJECT_ID":"2017-068F","EPOCH":"2026-03-02T15:37:04.382688","MEAN_MOTION":15.32537296,"ECCENTRICITY":0.0003531,"INCLINATION":97.4386,"RA_OF_ASC_NODE":198.4322,"ARG_OF_PERICENTER":129.4456,"MEAN_ANOMALY":230.7098,"EPHEMERIS_TYPE":0,"CLASSIFICATION_TYPE":"U","NORAD_CAT_ID":42992,"ELEMENT_SET_NO":999,"REV_AT_EPOCH":46599,"BSTAR":0.00044292,"MEAN_MOTION_DOT":0.00013849,"MEAN_MOTION_DDOT":0},{"OBJECT_NAME":"CARTOSAT-2F","OBJECT_ID":"2018-004A","EPOCH":"2026-03-02T20:07:00.830784","MEAN_MOTION":15.19179736,"ECCENTRICITY":6.22e-5,"INCLINATION":97.4179,"RA_OF_ASC_NODE":123.1217,"ARG_OF_PERICENTER":274.246,"MEAN_ANOMALY":85.8704,"EPHEMERIS_TYPE":0,"CLASSIFICATION_TYPE":"U","NORAD_CAT_ID":43111,"ELEMENT_SET_NO":999,"REV_AT_EPOCH":45118,"BSTAR":0.00024421,"MEAN_MOTION_DOT":5.069e-5,"MEAN_MOTION_DDOT":0},{"OBJECT_NAME":"GAOFEN-1 02","OBJECT_ID":"2018-031A","EPOCH":"2026-03-02T19:55:56.779392","MEAN_MOTION":14.7646536,"ECCENTRICITY":0.0002925,"INCLINATION":98.0667,"RA_OF_ASC_NODE":124.5922,"ARG_OF_PERICENTER":8.9298,"MEAN_ANOMALY":351.1963,"EPHEMERIS_TYPE":0,"CLASSIFICATION_TYPE":"U","NORAD_CAT_ID":43259,"ELEMENT_SET_NO":999,"REV_AT_EPOCH":42700,"BSTAR":0.00011393,"MEAN_MOTION_DOT":7.41e-6,"MEAN_MOTION_DDOT":0},{"OBJECT_NAME":"GAOFEN-1 03","OBJECT_ID":"2018-031B","EPOCH":"2026-03-02T21:02:03.024096","MEAN_MOTION":14.76461796,"ECCENTRICITY":0.0004,"INCLINATION":98.0649,"RA_OF_ASC_NODE":124.5071,"ARG_OF_PERICENTER":67.8642,"MEAN_ANOMALY":292.2992,"EPHEMERIS_TYPE":0,"CLASSIFICATION_TYPE":"U","NORAD_CAT_ID":43260,"ELEMENT_SET_NO":999,"REV_AT_EPOCH":42700,"BSTAR":0.00015949,"MEAN_MOTION_DOT":1.058e-5,"MEAN_MOTION_DDOT":0},{"OBJECT_NAME":"GAOFEN-1 04","OBJECT_ID":"2018-031D","EPOCH":"2026-03-02T20:27:03.377952","MEAN_MOTION":14.76461776,"ECCENTRICITY":0.0002077,"INCLINATION":98.0669,"RA_OF_ASC_NODE":124.6613,"ARG_OF_PERICENTER":89.9128,"MEAN_ANOMALY":270.232,"EPHEMERIS_TYPE":0,"CLASSIFICATION_TYPE":"U","NORAD_CAT_ID":43262,"ELEMENT_SET_NO":999,"REV_AT_EPOCH":42699,"BSTAR":0.00011194,"MEAN_MOTION_DOT":7.27e-6,"MEAN_MOTION_DDOT":0},{"OBJECT_NAME":"SENTINEL-3B","OBJECT_ID":"2018-039A","EPOCH":"2026-03-02T19:15:46.317888","MEAN_MOTION":14.26741817,"ECCENTRICITY":8.24e-5,"INCLINATION":98.6244,"RA_OF_ASC_NODE":130.8365,"ARG_OF_PERICENTER":126.9282,"MEAN_ANOMALY":233.1974,"EPHEMERIS_TYPE":0,"CLASSIFICATION_TYPE":"U","NORAD_CAT_ID":43437,"ELEMENT_SET_NO":999,"REV_AT_EPOCH":40895,"BSTAR":8.2049e-5,"MEAN_MOTION_DOT":1.55e-6,"MEAN_MOTION_DDOT":0}]
